[{"OBJECT_NAME":"YAOGAN-30 02A","OBJECT_ID":"2017-058A","EPOCH":"2026-03-09T22:50:50.758368","MEAN_MOTION":15.02502907,"ECCENTRICITY":0.0002444,"INCLINATION":34.9965,"RA_OF_ASC_NODE":274.2208,"ARG_OF_PERICENTER":338.504,"MEAN_ANOMALY":21.5565,"EPHEMERIS_TYPE":0,"CLASSIFICATION_TYPE":"U","NORAD_CAT_ID":42945,"ELEMENT_SET_NO":999,"REV_AT_EPOCH":46095,"BSTAR":0.00033405903,"MEAN_MOTION_DOT":4.5e-5,"MEAN_MOTION_DDOT":0},{"OBJECT_NAME":"STARLINK-5515","OBJECT_ID":"2023-083J","EPOCH":"2026-03-08T02:52:14.913120","MEAN_MOTION":15.02539897,"ECCENTRICITY":0.00013327,"INCLINATION":43.0045,"RA_OF_ASC_NODE":90.3545,"ARG_OF_PERICENTER":261.8232,"MEAN_ANOMALY":98.2459,"EPHEMERIS_TYPE":0,"CLASSIFICATION_TYPE":"U","NORAD_CAT_ID":56884,"ELEMENT_SET_NO":999,"REV_AT_EPOCH":15143,"BSTAR":3.5209572e-5,"MEAN_MOTION_DOT":2.72e-6,"MEAN_MOTION_DDOT":0}]
